start=new Date('2023-05-22T00:00:00.000Z').valueOf();
sats=[{"LAUNCH_DATE":"2021-03-11","RCS_SIZE":"LARGE","EPOCH":"2023-05-21T17:08:46.187808","OBJECT_NAME":"STARLINK-2338","CLASSIFICATION_TYPE":"U","PERIOD":"95.592","APOAPSIS":"548.047","MEAN_MOTION_DDOT":"0.0000000000000","OBJECT_TYPE":"PAYLOAD","TLE_LINE2":"2 47793  53.0525 143.9284 0001220  83.8702 276.2426 15.06403617122687","COUNTRY_CODE":"US","BSTAR":"-0.00000587870000","ELEMENT_SET_NO":"999","CENTER_NAME":"EARTH","EPHEMERIS_TYPE":"0","SEMIMAJOR_AXIS":"6925.337","OBJECT_ID":"2021-018G","REF_FRAME":"TEME","REV_AT_EPOCH":"12268","MEAN_MOTION":"15.06403617","TLE_LINE1":"1 47793U 21018G   23141.71442347 -.00000369  00000-0 -58787-5 0  9995","MEAN_ELEMENT_THEORY":"SGP4","MEAN_ANOMALY":"276.2426","PERIAPSIS":"546.358","INCLINATION":"53.0525","ECCENTRICITY":"0.00012200","RA_OF_ASC_NODE":"143.9284","SITE":"AFETR","TIME_SYSTEM":"UTC","ARG_OF_PERICENTER":"83.8702","GP_ID":"232282832","NORAD_CAT_ID":"47793","FILE":"3914061","DECAY_DATE":null,"MEAN_MOTION_DOT":"-0.00000369"},{"ELEMENT_SET_NO":"999","CENTER_NAME":"EARTH","EPHEMERIS_TYPE":"0","OBJECT_ID":"2021-018H","SEMIMAJOR_AXIS":"6925.340","TLE_LINE2":"2 47794  53.0533 143.9154 0001321  89.5278 270.5863 15.06402674122691","COUNTRY_CODE":"US","BSTAR":"0.00005427800000","PERIOD":"95.592","CLASSIFICATION_TYPE":"U","OBJECT_TYPE":"PAYLOAD","MEAN_MOTION_DDOT":"0.0000000000000","APOAPSIS":"548.120","LAUNCH_DATE":"2021-03-11","EPOCH":"2023-05-21T17:14:05.205120","RCS_SIZE":"LARGE","OBJECT_NAME":"STARLINK-2341","FILE":"3914061","DECAY_DATE":null,"MEAN_MOTION_DOT":"0.00000527","ARG_OF_PERICENTER":"89.5278","TIME_SYSTEM":"UTC","GP_ID":"232282582","NORAD_CAT_ID":"47794","INCLINATION":"53.0533","PERIAPSIS":"546.291","ECCENTRICITY":"0.00013210","SITE":"AFETR","RA_OF_ASC_NODE":"143.9154","REF_FRAME":"TEME","REV_AT_EPOCH":"12269","TLE_LINE1":"1 47794U 21018H   23141.71811580  .00000527  00000-0  54278-4 0  9999","MEAN_MOTION":"15.06402674","MEAN_ELEMENT_THEORY":"SGP4","MEAN_ANOMALY":"270.5863"},{"REV_AT_EPOCH":"12274","REF_FRAME":"TEME","MEAN_ELEMENT_THEORY":"SGP4","MEAN_ANOMALY":"277.6081","TLE_LINE1":"1 47795U 21018J   23141.70705802  .00000658  00000-0  63050-4 0  9991","MEAN_MOTION":"15.06399483","INCLINATION":"53.0523","PERIAPSIS":"546.385","SITE":"AFETR","RA_OF_ASC_NODE":"143.9607","ECCENTRICITY":"0.00011990","TIME_SYSTEM":"UTC","ARG_OF_PERICENTER":"82.5044","NORAD_CAT_ID":"47795","GP_ID":"232281831","DECAY_DATE":null,"FILE":"3914061","MEAN_MOTION_DOT":"0.00000658","LAUNCH_DATE":"2021-03-11","OBJECT_NAME":"STARLINK-2347","EPOCH":"2023-05-21T16:58:09.812928","RCS_SIZE":"LARGE","OBJECT_TYPE":"PAYLOAD","APOAPSIS":"548.045","MEAN_MOTION_DDOT":"0.0000000000000","PERIOD":"95.592","CLASSIFICATION_TYPE":"U","BSTAR":"0.00006305000000","TLE_LINE2":"2 47795  53.0523 143.9607 0001199  82.5044 277.6081 15.06399483122740","COUNTRY_CODE":"US","CENTER_NAME":"EARTH","ELEMENT_SET_NO":"999","OBJECT_ID":"2021-018J","SEMIMAJOR_AXIS":"6925.350","EPHEMERIS_TYPE":"0"},{"CLASSIFICATION_TYPE":"U","PERIOD":"95.592","MEAN_MOTION_DDOT":"0.0000000000000","APOAPSIS":"548.201","OBJECT_TYPE":"PAYLOAD","RCS_SIZE":"LARGE","EPOCH":"2023-05-21T17:19:23.538144","OBJECT_NAME":"STARLINK-2373","LAUNCH_DATE":"2021-03-11","EPHEMERIS_TYPE":"0","SEMIMAJOR_AXIS":"6925.354","OBJECT_ID":"2021-018K","ELEMENT_SET_NO":"999","CENTER_NAME":"EARTH","COUNTRY_CODE":"US","TLE_LINE2":"2 47796  53.0536 143.8923 0001418  82.0724 278.0426 15.06398308122696","BSTAR":"0.00000685680000","ECCENTRICITY":"0.00014180","RA_OF_ASC_NODE":"143.8923","SITE":"AFETR","PERIAPSIS":"546.237","INCLINATION":"53.0536","MEAN_MOTION":"15.06398308","TLE_LINE1":"1 47796U 21018K   23141.72180021 -.00000179  00000-0  68568-5 0  9993","MEAN_ELEMENT_THEORY":"SGP4","MEAN_ANOMALY":"278.0426","REF_FRAME":"TEME","REV_AT_EPOCH":"12269","MEAN_MOTION_DOT":"-0.00000179","FILE":"3914061","DECAY_DATE":null,"GP_ID":"232282081","NORAD_CAT_ID":"47796","ARG_OF_PERICENTER":"82.0724","TIME_SYSTEM":"UTC"},{"BSTAR":"0.00051245000000","COUNTRY_CODE":"US","TLE_LINE2":"2 47797  53.0530 170.8209 0001140  84.0930 276.0189 15.06425418122272","SEMIMAJOR_AXIS":"6925.271","OBJECT_ID":"2021-018L","EPHEMERIS_TYPE":"0","CENTER_NAME":"EARTH","ELEMENT_SET_NO":"999","OBJECT_NAME":"STARLINK-2377","RCS_SIZE":"LARGE","EPOCH":"2023-05-21T07:03:01.721088","LAUNCH_DATE":"2021-03-11","MEAN_MOTION_DDOT":"0.0000000000000","APOAPSIS":"547.925","OBJECT_TYPE":"PAYLOAD","CLASSIFICATION_TYPE":"U","PERIOD":"95.591","NORAD_CAT_ID":"47797","GP_ID":"232248364","ARG_OF_PERICENTER":"84.0930","TIME_SYSTEM":"UTC","MEAN_MOTION_DOT":"0.00007365","DECAY_DATE":null,"FILE":"3913738","MEAN_ELEMENT_THEORY":"SGP4","MEAN_ANOMALY":"276.0189","MEAN_MOTION":"15.06425418","TLE_LINE1":"1 47797U 21018L   23141.29376992  .00007365  00000-0  51245-3 0  9995","REV_AT_EPOCH":"12227","REF_FRAME":"TEME","RA_OF_ASC_NODE":"170.8209","SITE":"AFETR","ECCENTRICITY":"0.00011400","PERIAPSIS":"546.346","INCLINATION":"53.0530"},{"REV_AT_EPOCH":"12269","REF_FRAME":"TEME","MEAN_ELEMENT_THEORY":"SGP4","MEAN_ANOMALY":"275.2339","TLE_LINE1":"1 47798U 21018M   23141.73286138  .00000576  00000-0  57578-4 0  9990","MEAN_MOTION":"15.06400445","INCLINATION":"53.0531","PERIAPSIS":"546.323","SITE":"AFETR","RA_OF_ASC_NODE":"143.8480","ECCENTRICITY":"0.00012840","ARG_OF_PERICENTER":"84.8796","TIME_SYSTEM":"UTC","NORAD_CAT_ID":"47798","GP_ID":"232283083","DECAY_DATE":null,"FILE":"3914061","MEAN_MOTION_DOT":"0.00000576","LAUNCH_DATE":"2021-03-11","OBJECT_NAME":"STARLINK-2379","EPOCH":"2023-05-21T17:35:19.223232","RCS_SIZE":"LARGE","OBJECT_TYPE":"PAYLOAD","APOAPSIS":"548.101","MEAN_MOTION_DDOT":"0.0000000000000","PERIOD":"95.592","CLASSIFICATION_TYPE":"U","BSTAR":"0.00005757800000","TLE_LINE2":"2 47798  53.0531 143.8480 0001284  84.8796 275.2339 15.06400445122699","COUNTRY_CODE":"US","CENTER_NAME":"EARTH","ELEMENT_SET_NO":"999","OBJECT_ID":"2021-018M","SEMIMAJOR_AXIS":"6925.347","EPHEMERIS_TYPE":"0"},{"ECCENTRICITY":"0.00013620","RA_OF_ASC_NODE":"143.8628","SITE":"AFETR","PERIAPSIS":"546.265","INCLINATION":"53.0544","MEAN_MOTION":"15.06401886","TLE_LINE1":"1 47799U 21018N   23141.72917272  .00000331  00000-0  41130-4 0  9996","MEAN_ANOMALY":"267.3190","MEAN_ELEMENT_THEORY":"SGP4","REF_FRAME":"TEME","REV_AT_EPOCH":"12268","MEAN_MOTION_DOT":"0.00000331","FILE":"3914061","DECAY_DATE":null,"GP_ID":"232281331","NORAD_CAT_ID":"47799","TIME_SYSTEM":"UTC","ARG_OF_PERICENTER":"92.7955","CLASSIFICATION_TYPE":"U","PERIOD":"95.592","MEAN_MOTION_DDOT":"0.0000000000000","APOAPSIS":"548.151","OBJECT_TYPE":"PAYLOAD","RCS_SIZE":"LARGE","EPOCH":"2023-05-21T17:30:00.523008","OBJECT_NAME":"STARLINK-2380","LAUNCH_DATE":"2021-03-11","EPHEMERIS_TYPE":"0","SEMIMAJOR_AXIS":"6925.343","OBJECT_ID":"2021-018N","ELEMENT_SET_NO":"999","CENTER_NAME":"EARTH","COUNTRY_CODE":"US","TLE_LINE2":"2 47799  53.0544 143.8628 0001362  92.7955 267.3190 15.06401886122686","BSTAR":"0.00004113000000"},{"COUNTRY_CODE":"US","TLE_LINE2":"2 47800  53.0527 145.2575 0001259  80.2898 279.8233 15.06417368122644","BSTAR":"0.00030158000000","ELEMENT_SET_NO":"999","CENTER_NAME":"EARTH","EPHEMERIS_TYPE":"0","OBJECT_ID":"2021-018P","SEMIMAJOR_AXIS":"6925.295","LAUNCH_DATE":"2021-03-24","EPOCH":"2023-05-21T10:04:08.761440","RCS_SIZE":"LARGE","OBJECT_NAME":"STARLINK-2381","PERIOD":"95.591","CLASSIFICATION_TYPE":"U","OBJECT_TYPE":"PAYLOAD","APOAPSIS":"548.032","MEAN_MOTION_DDOT":"0.0000000000000","TIME_SYSTEM":"UTC","ARG_OF_PERICENTER":"80.2898","GP_ID":"232248114","NORAD_CAT_ID":"47800","FILE":"3913738","DECAY_DATE":null,"MEAN_MOTION_DOT":"0.00004215","REF_FRAME":"TEME","REV_AT_EPOCH":"12264","TLE_LINE1":"1 47800U 21018P   23141.41954585  .00004215  00000-0  30158-3 0  9995","MEAN_MOTION":"15.06417368","MEAN_ELEMENT_THEORY":"SGP4","MEAN_ANOMALY":"279.8233","INCLINATION":"53.0527","PERIAPSIS":"546.288","ECCENTRICITY":"0.00012590","SITE":"AFETR","RA_OF_ASC_NODE":"145.2575"},{"TIME_SYSTEM":"UTC","ARG_OF_PERICENTER":"82.2349","NORAD_CAT_ID":"47801","GP_ID":"232282833","DECAY_DATE":null,"FILE":"3914061","MEAN_MOTION_DOT":"0.00000223","REV_AT_EPOCH":"12262","REF_FRAME":"TEME","MEAN_ELEMENT_THEORY":"SGP4","MEAN_ANOMALY":"277.8762","TLE_LINE1":"1 47801U 21018Q   23141.71950890  .00000223  00000-0  33845-4 0  9996","MEAN_MOTION":"15.06404954","INCLINATION":"53.0525","PERIAPSIS":"546.454","SITE":"AFETR","RA_OF_ASC_NODE":"148.9890","ECCENTRICITY":"0.00010750","BSTAR":"0.00003384500000","TLE_LINE2":"2 47801  53.0525 148.9890 0001075  82.2349 277.8762 15.06404954122622","COUNTRY_CODE":"US","CENTER_NAME":"EARTH","ELEMENT_SET_NO":"999","OBJECT_ID":"2021-018Q","SEMIMAJOR_AXIS":"6925.333","EPHEMERIS_TYPE":"0","LAUNCH_DATE":"2021-03-11","OBJECT_NAME":"STARLINK-2382","EPOCH":"2023-05-21T17:16:05.568960","RCS_SIZE":"LARGE","OBJECT_TYPE":"PAYLOAD","MEAN_MOTION_DDOT":"0.0000000000000","APOAPSIS":"547.943","PERIOD":"95.592","CLASSIFICATION_TYPE":"U"},{"CLASSIFICATION_TYPE":"U","PERIOD":"95.592","APOAPSIS":"548.113","MEAN_MOTION_DDOT":"0.0000000000000","OBJECT_TYPE":"PAYLOAD","RCS_SIZE":"LARGE","EPOCH":"2023-05-21T18:22:24.578400","OBJECT_NAME":"STARLINK-2383","LAUNCH_DATE":"2021-03-11","EPHEMERIS_TYPE":"0","SEMIMAJOR_AXIS":"6925.327","OBJECT_ID":"2021-018R","ELEMENT_SET_NO":"999","CENTER_NAME":"EARTH","TLE_LINE2":"2 47802  53.0530 168.6981 0001330  93.3115 266.8027 15.06407014122359","COUNTRY_CODE":"US","BSTAR":"0.00005368100000","ECCENTRICITY":"0.00013300","RA_OF_ASC_NODE":"168.6981","SITE":"AFETR","PERIAPSIS":"546.271","INCLINATION":"53.0530","MEAN_MOTION":"15.06407014","TLE_LINE1":"1 47802U 21018R   23141.76556225  .00000518  00000-0  53681-4 0  9993","MEAN_ELEMENT_THEORY":"SGP4","MEAN_ANOMALY":"266.8027","REF_FRAME":"TEME","REV_AT_EPOCH":"12235","MEAN_MOTION_DOT":"0.00000518","FILE":"3914061","DECAY_DATE":null,"GP_ID":"232282583","NORAD_CAT_ID":"47802","ARG_OF_PERICENTER":"93.3115","TIME_SYSTEM":"UTC"}];
